{
  "type": "FeatureCollection",
  "features": [
    {
      "type": "Feature",
      "properties": {
        "norad_id": 29268,
        "name": "ARIRANG-2 (KOMPSAT-2)",
        "group": "resource",
        "lat": 2.4623628146403664,
        "lon": 165.0872146812892,
        "alt_km": 672.0466004639602,
        "timestamp": "2025-12-02T10:50:46.929767+00:00",
        "meta_object_name": "ARIRANG-2 (KOMPSAT-2)",
        "meta_object_id": "2006-031A",
        "meta_epoch": "2025-12-02T04:53:48.852096",
        "meta_mean_motion": 14.644781,
        "meta_eccentricity": 0.001409,
        "meta_inclination": 97.8265,
        "meta_ra_of_asc_node": 165.1904,
        "meta_arg_of_pericenter": 343.942,
        "meta_mean_anomaly": 152.4664,
        "meta_ephemeris_type": 0,
        "meta_classification_type": "U",
        "meta_norad_cat_id": 29268,
        "meta_element_set_no": 999,
        "meta_rev_at_epoch": 3264,
        "meta_bstar": 0.00010066,
        "meta_mean_motion_dot": 4.89e-06,
        "meta_mean_motion_ddot": 0,
        "tle_line1": "1 29268U 06031A   25336.20403764  .00000489  00000+0  10066-3 0  9998",
        "tle_line2": "2 29268  97.8265 165.1904 0014090 343.9420 152.4664 14.64478100 32649"
      },
      "geometry": {
        "type": "Point",
        "coordinates": [
          165.0872146812892,
          2.4623628146403664
        ]
      }
    },
    {
      "type": "Feature",
      "properties": {
        "norad_id": 29709,
        "name": "LAPAN-TUBSAT",
        "group": "resource",
        "lat": -53.26659052927212,
        "lon": 135.36090302781665,
        "alt_km": 624.5954864773212,
        "timestamp": "2025-12-02T10:50:46.929778+00:00",
        "meta_object_name": "LAPAN-TUBSAT",
        "meta_object_id": "2007-001A",
        "meta_epoch": "2025-12-02T03:19:54.372864",
        "meta_mean_motion": 14.85644146,
        "meta_eccentricity": 0.0013575,
        "meta_inclination": 98.1251,
        "meta_ra_of_asc_node": 326.0779,
        "meta_arg_of_pericenter": 105.4698,
        "meta_mean_anomaly": 254.8017,
        "meta_ephemeris_type": 0,
        "meta_classification_type": "U",
        "meta_norad_cat_id": 29709,
        "meta_element_set_no": 999,
        "meta_rev_at_epoch": 2189,
        "meta_bstar": 0.00010211,
        "meta_mean_motion_dot": 8.28e-06,
        "meta_mean_motion_ddot": 0,
        "tle_line1": "1 29709U 07001A   25336.13882376  .00000828  00000+0  10211-3 0  9997",
        "tle_line2": "2 29709  98.1251 326.0779 0013575 105.4698 254.8017 14.85644146 21893"
      },
      "geometry": {
        "type": "Point",
        "coordinates": [
          135.36090302781665,
          -53.26659052927212
        ]
      }
    },
    {
      "type": "Feature",
      "properties": {
        "norad_id": 31113,
        "name": "HAIYANG-1B",
        "group": "resource",
        "lat": -18.256985059502444,
        "lon": -36.07383061218758,
        "alt_km": 792.5177923200254,
        "timestamp": "2025-12-02T10:50:46.929789+00:00",
        "meta_object_name": "HAIYANG-1B",
        "meta_object_id": "2007-010A",
        "meta_epoch": "2025-12-01T23:11:06.847872",
        "meta_mean_motion": 14.30959078,
        "meta_eccentricity": 0.0014614,
        "meta_inclination": 98.3306,
        "meta_ra_of_asc_node": 320.6899,
        "meta_arg_of_pericenter": 67.7414,
        "meta_mean_anomaly": 292.5318,
        "meta_ephemeris_type": 0,
        "meta_classification_type": "U",
        "meta_norad_cat_id": 31113,
        "meta_element_set_no": 999,
        "meta_rev_at_epoch": 97242,
        "meta_bstar": 7.3765e-05,
        "meta_mean_motion_dot": 1.53e-06,
        "meta_mean_motion_ddot": 0,
        "tle_line1": "1 31113U 07010A   25335.96605148  .00000153  00000+0  73765-4 0  9994",
        "tle_line2": "2 31113  98.3306 320.6899 0014614  67.7414 292.5318 14.30959078972422"
      },
      "geometry": {
        "type": "Point",
        "coordinates": [
          -36.07383061218758,
          -18.256985059502444
        ]
      }
    },
    {
      "type": "Feature",
      "properties": {
        "norad_id": 31598,
        "name": "COSMO-SKYMED 1",
        "group": "resource",
        "lat": 1.289580849562603,
        "lon": -18.03706743633274,
        "alt_km": 583.3538956276534,
        "timestamp": "2025-12-02T10:50:46.929800+00:00",
        "meta_object_name": "COSMO-SKYMED 1",
        "meta_object_id": "2007-023A",
        "meta_epoch": "2025-12-02T03:37:40.730304",
        "meta_mean_motion": 14.95641991,
        "meta_eccentricity": 0.0001514,
        "meta_inclination": 97.8846,
        "meta_ra_of_asc_node": 161.4816,
        "meta_arg_of_pericenter": 83.6584,
        "meta_mean_anomaly": 276.4809,
        "meta_ephemeris_type": 0,
        "meta_classification_type": "U",
        "meta_norad_cat_id": 31598,
        "meta_element_set_no": 999,
        "meta_rev_at_epoch": 32,
        "meta_bstar": 0.00041912,
        "meta_mean_motion_dot": 4.6e-05,
        "meta_mean_motion_ddot": 0,
        "tle_line1": "1 31598U 07023A   25336.15116586  .00004600  00000+0  41912-3 0  9999",
        "tle_line2": "2 31598  97.8846 161.4816 0001514  83.6584 276.4809 14.95641991   322"
      },
      "geometry": {
        "type": "Point",
        "coordinates": [
          -18.03706743633274,
          1.289580849562603
        ]
      }
    },
    {
      "type": "Feature",
      "properties": {
        "norad_id": 31698,
        "name": "TERRASAR-X",
        "group": "resource",
        "lat": 47.10319889240423,
        "lon": -26.106139064791392,
        "alt_km": 503.2678438514122,
        "timestamp": "2025-12-02T10:50:46.929810+00:00",
        "meta_object_name": "TERRASAR-X",
        "meta_object_id": "2007-026A",
        "meta_epoch": "2025-12-01T15:40:02.654400",
        "meta_mean_motion": 15.19150274,
        "meta_eccentricity": 0.00019062,
        "meta_inclination": 97.4444,
        "meta_ra_of_asc_node": 341.1963,
        "meta_arg_of_pericenter": 89.1201,
        "meta_mean_anomaly": 271.0252,
        "meta_ephemeris_type": 0,
        "meta_classification_type": "U",
        "meta_norad_cat_id": 31698,
        "meta_element_set_no": 999,
        "meta_rev_at_epoch": 2323,
        "meta_bstar": 7.6522775e-05,
        "meta_mean_motion_dot": 1.54e-05,
        "meta_mean_motion_ddot": 0,
        "tle_line1": "1 31698U 07026A   25335.65280850  .00001540  00000+0  76523-4 0  9990",
        "tle_line2": "2 31698  97.4444 341.1963 0001906  89.1201 271.0252 15.19150274 23239"
      },
      "geometry": {
        "type": "Point",
        "coordinates": [
          -26.106139064791392,
          47.10319889240423
        ]
      }
    },
    {
      "type": "Feature",
      "properties": {
        "norad_id": 32060,
        "name": "WORLDVIEW-1 (WV-1)",
        "group": "resource",
        "lat": -29.045270081535726,
        "lon": -90.04989351781364,
        "alt_km": 498.7565398223651,
        "timestamp": "2025-12-02T10:50:46.929821+00:00",
        "meta_object_name": "WORLDVIEW-1 (WV-1)",
        "meta_object_id": "2007-041A",
        "meta_epoch": "2025-12-02T02:03:16.473312",
        "meta_mean_motion": 15.24409203,
        "meta_eccentricity": 7.5e-05,
        "meta_inclination": 97.3832,
        "meta_ra_of_asc_node": 93.7187,
        "meta_arg_of_pericenter": 92.2915,
        "meta_mean_anomaly": 267.8408,
        "meta_ephemeris_type": 0,
        "meta_classification_type": "U",
        "meta_norad_cat_id": 32060,
        "meta_element_set_no": 999,
        "meta_rev_at_epoch": 1285,
        "meta_bstar": 0.00042553,
        "meta_mean_motion_dot": 0.00010368,
        "meta_mean_motion_ddot": 0,
        "tle_line1": "1 32060U 07041A   25336.08560733  .00010368  00000+0  42553-3 0  9993",
        "tle_line2": "2 32060  97.3832  93.7187 0000750  92.2915 267.8408 15.24409203 12851"
      },
      "geometry": {
        "type": "Point",
        "coordinates": [
          -90.04989351781364,
          -29.045270081535726
        ]
      }
    },
    {
      "type": "Feature",
      "properties": {
        "norad_id": 32289,
        "name": "YAOGAN-3",
        "group": "resource",
        "lat": -64.57879352717593,
        "lon": 166.32279921085538,
        "alt_km": 606.902122253121,
        "timestamp": "2025-12-02T10:50:46.929832+00:00",
        "meta_object_name": "YAOGAN-3",
        "meta_object_id": "2007-055A",
        "meta_epoch": "2025-12-02T04:54:39.486816",
        "meta_mean_motion": 14.89774047,
        "meta_eccentricity": 0.0001515,
        "meta_inclination": 97.838,
        "meta_ra_of_asc_node": 2.9254,
        "meta_arg_of_pericenter": 77.0714,
        "meta_mean_anomaly": 283.0673,
        "meta_ephemeris_type": 0,
        "meta_classification_type": "U",
        "meta_norad_cat_id": 32289,
        "meta_element_set_no": 999,
        "meta_rev_at_epoch": 97652,
        "meta_bstar": 0.00029148,
        "meta_mean_motion_dot": 2.74e-05,
        "meta_mean_motion_ddot": 0,
        "tle_line1": "1 32289U 07055A   25336.20462369  .00002740  00000+0  29148-3 0  9991",
        "tle_line2": "2 32289  97.8380   2.9254 0001515  77.0714 283.0673 14.89774047976520"
      },
      "geometry": {
        "type": "Point",
        "coordinates": [
          166.32279921085538,
          -64.57879352717593
        ]
      }
    }
  ]
}